H1 CPF 01  gfz 2021 03 28 12  5872 tandemx   
H2 1003001  6202 36605    2021 03 28 12 59 42 2021 04 02 00 00 42   120 1 1  0 0 0
H9
10 0 59303  72702.000000  0   -5781153.297   3738321.868   -268747.860
10 0 59303  72822.000000  0   -5604430.966   3835329.040  -1168335.929
10 0 59303  72942.000000  0   -5328769.594   3861406.839  -2047378.410
10 0 59303  73062.000000  0   -4960322.034   3814479.124  -2890446.233
10 0 59303  73182.000000  0   -4506886.414   3693874.713  -3682775.743
10 0 59303  73302.000000  0   -3977733.665   3500358.925  -4410528.782
10 0 59303  73422.000000  0   -3383410.533   3236136.496  -5061031.519
10 0 59303  73542.000000  0   -2735522.445   2904825.636  -5622987.938
10 0 59303  73662.000000  0   -2046503.480   2511405.738  -6086666.881
10 0 59303  73782.000000  0   -1329374.611   2062138.535  -6444060.545
10 0 59303  73902.000000  0    -597497.781   1564465.047  -6689010.183
10 0 59303  74022.000000  0     135669.536   1026881.574  -6817301.585
10 0 59303  74142.000000  0     856815.565    458796.127  -6826729.420
10 0 59303  74262.000000  0    1553010.623   -129632.753  -6717132.747
10 0 59303  74382.000000  0    2211933.962   -727673.832  -6490396.156
10 0 59303  74502.000000  0    2822086.581  -1324213.518  -6150421.027
10 0 59303  74622.000000  0    3372989.495  -1907957.051  -5703065.361
10 0 59303  74742.000000  0    3855363.848  -2467637.636  -5156054.242
10 0 59303  74862.000000  0    4261291.669  -2992232.952  -4518857.743
10 0 59303  74982.000000  0    4584350.310  -3471182.308  -3802536.811
10 0 59303  75102.000000  0    4819720.536  -3894599.982  -3019561.294
10 0 59303  75222.000000  0    4964266.361  -4253482.013  -2183599.919
10 0 59303  75342.000000  0    5016582.517  -4539900.283  -1309284.550
10 0 59303  75462.000000  0    4977008.369  -4747179.957   -411953.320
10 0 59303  75582.000000  0    4847605.811  -4870054.834    492623.323
10 0 59303  75702.000000  0    4632102.159  -4904795.480   1388527.234
10 0 59303  75822.000000  0    4335799.009  -4849306.495   2259982.003
10 0 59303  75942.000000  0    3965448.960  -4703190.935   3091638.971
10 0 59303  76062.000000  0    3529104.692  -4467780.507   3868855.155
10 0 59303  76182.000000  0    3035942.560  -4146130.119   4577956.642
10 0 59303  76302.000000  0    2496066.746  -3742976.996   5206481.619
10 0 59303  76422.000000  0    1920298.948  -3264666.863   5743398.802
10 0 59303  76542.000000  0    1319957.670  -2719048.150   6179298.567
10 0 59303  76662.000000  0     706632.883  -2115337.371   6506551.968
10 0 59303  76782.000000  0      91960.602  -1463959.509   6719437.914
10 0 59303  76902.000000  0    -512597.717   -776365.602   6814237.495
10 0 59303  77022.000000  0   -1095967.848    -64829.729   6789295.006
10 0 59303  77142.000000  0   -1647664.898    657769.992   6645044.882
10 0 59303  77262.000000  0   -2157981.229   1378183.932   6384004.498
10 0 59303  77382.000000  0   -2618157.640   2083032.975   6010732.979
10 0 59303  77502.000000  0   -3020534.898   2759056.808   5531756.734
10 0 59303  77622.000000  0   -3358684.028   3393365.063   4955461.859
10 0 59303  77742.000000  0   -3627513.081   3973686.098   4291953.254
10 0 59303  77862.000000  0   -3823347.324   4488609.544   3552882.241
10 0 59303  77982.000000  0   -3943981.094   4927816.989   2751244.238
10 0 59303  78102.000000  0   -3988699.906   5282294.947   1901148.878
10 0 59303  78222.000000  0   -3958271.225   5544524.085   1017568.022
10 0 59303  78342.000000  0   -3854905.886   5708641.328    116067.030
10 0 59303  78462.000000  0   -3682190.476   5770571.312   -787477.832
10 0 59303  78582.000000  0   -3444989.958   5728120.666  -1677169.705
10 0 59303  78702.000000  0   -3149324.208   5581032.952  -2537380.667
10 0 59303  78822.000000  0   -2802220.883   5331004.319  -3353032.106
10 0 59303  78942.000000  0   -2411552.355   4981660.064  -4109861.985
10 0 59303  79062.000000  0   -1985858.753   4538492.863  -4794673.455
10 0 59303  79182.000000  0   -1534162.251   4008766.128  -5395558.735
10 0 59303  79302.000000  0   -1065777.876   3401386.792  -5902098.254
10 0 59303  79422.000000  0    -590123.203   2726747.695  -6305532.521
10 0 59303  79542.000000  0    -116531.287   1996543.620  -6598901.973
10 0 59303  79662.000000  0     345928.197   1223567.036  -6777155.371
10 0 59303  79782.000000  0     788617.829    421485.607  -6837228.320
10 0 59303  79902.000000  0    1203490.128   -395395.342  -6778090.348
10 0 59303  80022.000000  0    1583229.887  -1212382.903  -6600759.374
10 0 59303  80142.000000  0    1921379.629  -2014653.514  -6308285.339
10 0 59303  80262.000000  0    2212448.097  -2787514.874  -5905704.080
10 0 59303  80382.000000  0    2451999.439  -3516670.825  -5399961.417
10 0 59303  80502.000000  0    2636722.565  -4188486.836  -4799804.279
10 0 59303  80622.000000  0    2764477.428  -4790246.219  -4115638.566
10 0 59303  80742.000000  0    2834318.232  -5310394.462  -3359359.860
10 0 59303  80862.000000  0    2846493.045  -5738769.867  -2544155.725
10 0 59303  80982.000000  0    2802419.343  -6066811.644  -1684280.262
10 0 59303  81102.000000  0    2704636.067  -6287741.350   -794805.925
10 0 59303  81222.000000  0    2556730.724  -6396711.700    108644.948
10 0 59303  81342.000000  0    2363244.048  -6390916.878   1010180.885
10 0 59303  81462.000000  0    2129555.527  -6269663.964   1893928.617
10 0 59303  81582.000000  0    1861750.991  -6034400.853   2744323.087
10 0 59303  81702.000000  0    1566476.419  -5688699.623   3546389.566
10 0 59303  81822.000000  0    1250781.972  -5238197.858   4286013.020
10 0 59303  81942.000000  0     921960.387  -4690499.862   4950189.381
10 0 59303  82062.000000  0     587383.514  -4055040.722   5527255.879
10 0 59303  82182.000000  0     254340.297  -3342913.394   6007094.598
10 0 59303  82302.000000  0     -70118.509  -2566665.281   6381304.300
10 0 59303  82422.000000  0    -379326.675  -1740071.315   6643340.345
10 0 59303  82542.000000  0    -667136.737   -877886.866   6788623.351
10 0 59303  82662.000000  0    -928040.459      4417.301   6814615.553
10 0 59303  82782.000000  0   -1157273.397    890933.438   6720862.590
10 0 59303  82902.000000  0   -1350901.470   1765603.297   6509000.572
10 0 59303  83022.000000  0   -1505888.430   2612508.312   6182729.358
10 0 59303  83142.000000  0   -1620143.787   3416159.696   5747751.912
10 0 59303  83262.000000  0   -1692549.831   4161783.544   5211679.817
10 0 59303  83382.000000  0   -1722967.422   4835596.972   4583907.054
10 0 59303  83502.000000  0   -1712220.962   5425070.355   3875450.413
10 0 59303  83622.000000  0   -1662061.569   5919168.897   3098759.372
10 0 59303  83742.000000  0   -1575111.165   6308568.303   2267498.087
10 0 59303  83862.000000  0   -1454786.644   6585840.363   1396302.614
10 0 59303  83982.000000  0   -1305205.129   6745602.258    500517.746
10 0 59303  84102.000000  0   -1131074.181   6784625.740   -404079.948
10 0 59303  84222.000000  0    -937569.469   6701905.249  -1301569.048
10 0 59303  84342.000000  0    -730201.909   6498678.318  -2176175.019
10 0 59303  84462.000000  0    -514679.798   6178398.309  -3012554.797
10 0 59303  84582.000000  0    -296769.283   5746664.952  -3796068.837
10 0 59303  84702.000000  0     -82155.698   5211115.144  -4513037.747
10 0 59303  84822.000000  0     123690.559   4581275.529  -5150978.452
10 0 59303  84942.000000  0     315640.818   3868381.716  -5698815.354
10 0 59303  85062.000000  0     489024.524   3085167.880  -6147064.010
10 0 59303  85182.000000  0     639732.318   2245631.997  -6487984.118
10 0 59303  85302.000000  0     764304.673   1364783.205  -6715701.272
10 0 59303  85422.000000  0     860004.631    458374.975  -6826298.238
10 0 59303  85542.000000  0     924873.327   -457372.459  -6817875.169
10 0 59303  85662.000000  0     957767.673  -1366056.675  -6690577.846
10 0 59303  85782.000000  0     958379.759  -2251378.622  -6446593.783
10 0 59303  85902.000000  0     927238.508  -3097426.587  -6090119.998
10 0 59303  86022.000000  0     865692.596  -3888958.942  -5627300.653
10 0 59303  86142.000000  0     775874.559  -4611678.241  -5066130.268
10 0 59303  86262.000000  0     660648.073  -5252491.249  -4416327.029
10 0 59303  86382.000000  0     523537.589  -5799752.969  -3689175.996
10 0 59304    102.000000  0     368641.900  -6243488.106  -2897341.771
10 0 59304    222.000000  0     200533.529  -6575584.575  -2054654.422
10 0 59304    342.000000  0      24145.923  -6789955.509  -1175870.397
10 0 59304    462.000000  0    -155349.367  -6882662.934   -276411.831
10 0 59304    582.000000  0    -332672.353  -6851999.398    627909.106
10 0 59304    702.000000  0    -502567.906  -6698526.216   1521174.965
10 0 59304    822.000000  0    -659939.371  -6425066.737   2387652.311
10 0 59304    942.000000  0    -799978.847  -6036653.070   3212078.692
10 0 59304   1062.000000  0    -918289.555  -5540426.618   3979939.859
10 0 59304   1182.000000  0   -1010999.185  -4945497.758   4677728.983
10 0 59304   1302.000000  0   -1074860.747  -4262769.270   5293185.659
10 0 59304   1422.000000  0   -1107337.908  -3504727.448   5815511.147
10 0 59304   1542.000000  0   -1106674.017  -2685203.237   6235555.214
10 0 59304   1662.000000  0   -1071941.942  -1819111.857   6545969.082
10 0 59304   1782.000000  0   -1003075.113   -922178.347   6741327.426
10 0 59304   1902.000000  0    -900880.167    -10649.907   6818218.622
10 0 59304   2022.000000  0    -767030.035    898998.875   6775300.483
10 0 59304   2142.000000  0    -604036.297   1790363.430   6613322.618
10 0 59304   2262.000000  0    -415202.000   2647404.734   6335114.007
10 0 59304   2382.000000  0    -204556.017   3454737.922   5945536.590
10 0 59304   2502.000000  0      23229.565   4197910.573   5451405.305
10 0 59304   2622.000000  0     262938.340   4863665.278   4861374.559
10 0 59304   2742.000000  0     508923.551   5440183.644   4185792.993
99
